IRIDIUM 173             
1 43925U 19002D   26073.58058904  .00000097  00000+0  27595-4 0  9999
2 43925  86.3980  33.0881 0002035  84.3396 275.8031 14.34218084375393
IRIDIUM 169             
1 43926U 19002E   26073.51728247  .00000114  00000+0  30852-4 0  9997
2 43926  86.4176  64.7657 0001502  88.0581 272.0789 14.38606469376616
IRIDIUM 172             
1 43927U 19002F   26073.36493974  .00000181  00000+0  57667-4 0  9994
2 43927  86.3980  33.1855 0002298  84.2096 275.9362 14.34218531375377
IRIDIUM 175             
1 43928U 19002G   26073.20357557  .00001028  00000+0  15912-3 0  9991
2 43928  86.1535 330.5199 0002774 103.0388 257.1139 14.72239516385261
IRIDIUM 171             
1 43929U 19002H   26073.34591377  .00000016  00000+0 -13275-5 0  9996
2 43929  86.3988  33.4898 0002063  92.0050 268.1382 14.34217632375360
IRIDIUM 170             
1 43930U 19002J   26073.35023438  .00001143  00000+0  17736-3 0  9992
2 43930  86.6101  33.1764 0002629  87.3401 272.8117 14.72246897385306
IRIDIUM 167             
1 43931U 19002K   26073.33957095 -.00000086  00000+0 -37864-4 0  9998
2 43931  86.3981  33.2183 0001906  95.0129 265.1284 14.34216995375365
IRIDIUM 181             
1 56726U 23068S   26073.54116419  .00000209  00000+0  56219-4 0  9991
2 56726  86.4448  96.3691 0002621  92.1922 267.9579 14.43309156148781
IRIDIUM 177             
1 56727U 23068T   26073.34235051  .00001633  00000+0  21143-3 0  9993
2 56727  86.2009  13.8152 0002205  75.7764 284.3701 14.80223761152332
IRIDIUM 174             
1 56728U 23068U   26073.40582679  .00001190  00000+0  18476-3 0  9995
2 56728  86.6109  33.2918 0002578  80.1164 280.0344 14.72251493152072
IRIDIUM 178             
1 56729U 23068V   26073.46663222  .00000653  00000+0  82554-4 0  9998
2 56729  86.6491  64.9387 0002560  98.6230 261.5282 14.80230788152356
IRIDIUM 179             
1 56730U 23068W   26073.52885584  .00001305  00000+0  16827-3 0  9998
2 56730  86.6728  73.6177 0002410  95.3285 264.8211 14.80228472152369
