[{"OBJECT_NAME":"IRIDIUM 173","OBJECT_ID":"2019-002D","EPOCH":"2026-03-14T13:56:02.893056","MEAN_MOTION":14.34218084,"ECCENTRICITY":0.00020354,"INCLINATION":86.398,"RA_OF_ASC_NODE":33.0881,"ARG_OF_PERICENTER":84.3396,"MEAN_ANOMALY":275.8031,"EPHEMERIS_TYPE":0,"CLASSIFICATION_TYPE":"U","NORAD_CAT_ID":43925,"ELEMENT_SET_NO":999,"REV_AT_EPOCH":37539,"BSTAR":2.7595404e-5,"MEAN_MOTION_DOT":9.7e-7,"MEAN_MOTION_DDOT":0},{"OBJECT_NAME":"IRIDIUM 169","OBJECT_ID":"2019-002E","EPOCH":"2026-03-14T12:24:53.205408","MEAN_MOTION":14.38606469,"ECCENTRICITY":0.0001502,"INCLINATION":86.4176,"RA_OF_ASC_NODE":64.7657,"ARG_OF_PERICENTER":88.0581,"MEAN_ANOMALY":272.0789,"EPHEMERIS_TYPE":0,"CLASSIFICATION_TYPE":"U","NORAD_CAT_ID":43926,"ELEMENT_SET_NO":999,"REV_AT_EPOCH":37661,"BSTAR":3.0852062e-5,"MEAN_MOTION_DOT":1.14e-6,"MEAN_MOTION_DDOT":0},{"OBJECT_NAME":"IRIDIUM 172","OBJECT_ID":"2019-002F","EPOCH":"2026-03-14T08:45:30.793536","MEAN_MOTION":14.34218531,"ECCENTRICITY":0.00022983,"INCLINATION":86.398,"RA_OF_ASC_NODE":33.1855,"ARG_OF_PERICENTER":84.2096,"MEAN_ANOMALY":275.9362,"EPHEMERIS_TYPE":0,"CLASSIFICATION_TYPE":"U","NORAD_CAT_ID":43927,"ELEMENT_SET_NO":999,"REV_AT_EPOCH":37537,"BSTAR":5.7666548e-5,"MEAN_MOTION_DOT":1.81e-6,"MEAN_MOTION_DDOT":0},{"OBJECT_NAME":"IRIDIUM 175","OBJECT_ID":"2019-002G","EPOCH":"2026-03-14T04:53:08.929248","MEAN_MOTION":14.72239516,"ECCENTRICITY":0.00027744,"INCLINATION":86.1535,"RA_OF_ASC_NODE":330.5199,"ARG_OF_PERICENTER":103.0388,"MEAN_ANOMALY":257.1139,"EPHEMERIS_TYPE":0,"CLASSIFICATION_TYPE":"U","NORAD_CAT_ID":43928,"ELEMENT_SET_NO":999,"REV_AT_EPOCH":38526,"BSTAR":0.00015911763,"MEAN_MOTION_DOT":1.028e-5,"MEAN_MOTION_DDOT":0},{"OBJECT_NAME":"IRIDIUM 171","OBJECT_ID":"2019-002H","EPOCH":"2026-03-14T08:18:06.949728","MEAN_MOTION":14.34217632,"ECCENTRICITY":0.00020633,"INCLINATION":86.3988,"RA_OF_ASC_NODE":33.4898,"ARG_OF_PERICENTER":92.005,"MEAN_ANOMALY":268.1382,"EPHEMERIS_TYPE":0,"CLASSIFICATION_TYPE":"U","NORAD_CAT_ID":43929,"ELEMENT_SET_NO":999,"REV_AT_EPOCH":37536,"BSTAR":-1.327494e-6,"MEAN_MOTION_DOT":1.6e-7,"MEAN_MOTION_DDOT":0},{"OBJECT_NAME":"IRIDIUM 170","OBJECT_ID":"2019-002J","EPOCH":"2026-03-14T08:24:20.250432","MEAN_MOTION":14.72246897,"ECCENTRICITY":0.00026299,"INCLINATION":86.6101,"RA_OF_ASC_NODE":33.1764,"ARG_OF_PERICENTER":87.3401,"MEAN_ANOMALY":272.8117,"EPHEMERIS_TYPE":0,"CLASSIFICATION_TYPE":"U","NORAD_CAT_ID":43930,"ELEMENT_SET_NO":999,"REV_AT_EPOCH":38530,"BSTAR":0.00017736158,"MEAN_MOTION_DOT":1.143e-5,"MEAN_MOTION_DDOT":0},{"OBJECT_NAME":"IRIDIUM 167","OBJECT_ID":"2019-002K","EPOCH":"2026-03-14T08:08:58.930080","MEAN_MOTION":14.34216995,"ECCENTRICITY":0.00019062,"INCLINATION":86.3981,"RA_OF_ASC_NODE":33.2183,"ARG_OF_PERICENTER":95.0129,"MEAN_ANOMALY":265.1284,"EPHEMERIS_TYPE":0,"CLASSIFICATION_TYPE":"U","NORAD_CAT_ID":43931,"ELEMENT_SET_NO":999,"REV_AT_EPOCH":37536,"BSTAR":-3.7864177e-5,"MEAN_MOTION_DOT":-8.6e-7,"MEAN_MOTION_DDOT":0},{"OBJECT_NAME":"IRIDIUM 181","OBJECT_ID":"2023-068S","EPOCH":"2026-03-14T12:59:16.586016","MEAN_MOTION":14.43309156,"ECCENTRICITY":0.00026212,"INCLINATION":86.4448,"RA_OF_ASC_NODE":96.3691,"ARG_OF_PERICENTER":92.1922,"MEAN_ANOMALY":267.9579,"EPHEMERIS_TYPE":0,"CLASSIFICATION_TYPE":"U","NORAD_CAT_ID":56726,"ELEMENT_SET_NO":999,"REV_AT_EPOCH":14878,"BSTAR":5.6218853e-5,"MEAN_MOTION_DOT":2.09e-6,"MEAN_MOTION_DDOT":0},{"OBJECT_NAME":"IRIDIUM 177","OBJECT_ID":"2023-068T","EPOCH":"2026-03-14T08:12:59.084064","MEAN_MOTION":14.80223761,"ECCENTRICITY":0.00022053,"INCLINATION":86.2009,"RA_OF_ASC_NODE":13.8152,"ARG_OF_PERICENTER":75.7764,"MEAN_ANOMALY":284.3701,"EPHEMERIS_TYPE":0,"CLASSIFICATION_TYPE":"U","NORAD_CAT_ID":56727,"ELEMENT_SET_NO":999,"REV_AT_EPOCH":15233,"BSTAR":0.00021142888,"MEAN_MOTION_DOT":1.633e-5,"MEAN_MOTION_DDOT":0},{"OBJECT_NAME":"IRIDIUM 174","OBJECT_ID":"2023-068U","EPOCH":"2026-03-14T09:44:23.434656","MEAN_MOTION":14.72251493,"ECCENTRICITY":0.00025787,"INCLINATION":86.6109,"RA_OF_ASC_NODE":33.2918,"ARG_OF_PERICENTER":80.1164,"MEAN_ANOMALY":280.0344,"EPHEMERIS_TYPE":0,"CLASSIFICATION_TYPE":"U","NORAD_CAT_ID":56728,"ELEMENT_SET_NO":999,"REV_AT_EPOCH":15207,"BSTAR":0.00018476456,"MEAN_MOTION_DOT":1.19e-5,"MEAN_MOTION_DDOT":0},{"OBJECT_NAME":"IRIDIUM 178","OBJECT_ID":"2023-068V","EPOCH":"2026-03-14T11:11:57.023808","MEAN_MOTION":14.80230788,"ECCENTRICITY":0.00025606,"INCLINATION":86.6491,"RA_OF_ASC_NODE":64.9387,"ARG_OF_PERICENTER":98.623,"MEAN_ANOMALY":261.5282,"EPHEMERIS_TYPE":0,"CLASSIFICATION_TYPE":"U","NORAD_CAT_ID":56729,"ELEMENT_SET_NO":999,"REV_AT_EPOCH":15235,"BSTAR":8.255412e-5,"MEAN_MOTION_DOT":6.53e-6,"MEAN_MOTION_DDOT":0},{"OBJECT_NAME":"IRIDIUM 179","OBJECT_ID":"2023-068W","EPOCH":"2026-03-14T12:41:33.144576","MEAN_MOTION":14.80228472,"ECCENTRICITY":0.00024104,"INCLINATION":86.6728,"RA_OF_ASC_NODE":73.6177,"ARG_OF_PERICENTER":95.3285,"MEAN_ANOMALY":264.8211,"EPHEMERIS_TYPE":0,"CLASSIFICATION_TYPE":"U","NORAD_CAT_ID":56730,"ELEMENT_SET_NO":999,"REV_AT_EPOCH":15236,"BSTAR":0.00016827331,"MEAN_MOTION_DOT":1.305e-5,"MEAN_MOTION_DDOT":0}]
